OBJECT_NAME,OBJECT_ID,EPOCH,MEAN_MOTION,ECCENTRICITY,INCLINATION,RA_OF_ASC_NODE,ARG_OF_PERICENTER,MEAN_ANOMALY,EPHEMERIS_TYPE,CLASSIFICATION_TYPE,NORAD_CAT_ID,ELEMENT_SET_NO,REV_AT_EPOCH,BSTAR,MEAN_MOTION_DOT,MEAN_MOTION_DDOT
CHUANGXIN 1-02 (CX-1-02),2008-056B,2026-07-23T07:52:28.874208,14.30159711,.00150337,98.6135,230.2329,38.4347,321.7903,0,U,33434,999,92378,.33985585E-4,.44E-6,0
STARS (KUKAI),2009-002G,2026-07-22T19:20:01.576320,14.95964883,.00099634,98.1555,152.5755,59.5951,300.6252,0,U,33498,999,94380,.36328559E-3,.4012E-4,0
KKS-1 (KISEKI),2009-002H,2026-07-23T05:09:41.775840,14.83203408,.00080726,98.1169,127.2277,162.9724,197.1761,0,U,33499,999,94153,.13864563E-3,.1077E-4,0
NOAA 19,2009-005A,2026-07-23T07:01:53.755392,14.13479265,.00127162,98.9503,275.1908,289.5371,70.4428,0,U,33591,999,89958,.29885917E-4,.11E-6,0
UK-DMC 2,2009-041C,2026-07-23T06:56:26.302848,14.76102893,.00017333,97.8880,338.3828,99.5330,260.6076,0,U,35683,999,91189,.14752237E-3,.968E-5,0
METEOR-M 1,2009-049A,2026-07-22T18:58:46.591392,14.23163647,.00019213,98.7410,166.0128,175.4146,184.7050,0,U,35865,999,87431,.39560695E-4,.45E-6,0
OCEANSAT-2,2009-051A,2026-07-23T05:29:07.808640,13.99657062,.00177988,98.2329,187.4817,130.5772,229.6947,0,U,35931,999,88437,.14194535E-3,.17E-5,0
SWISSCUBE,2009-051B,2026-07-23T03:43:49.742976,14.62541744,.00081093,98.3998,112.6657,98.0034,262.2087,0,U,35932,999,89441,.17352267E-3,.831E-5,0
BEESAT-1,2009-051C,2026-07-22T20:11:41.821728,14.61770632,.00064514,98.3927,111.9069,110.1032,250.0863,0,U,35933,999,89439,.1434567E-3,.667E-5,0
ITUPSAT1,2009-051E,2026-07-22T17:26:18.156192,14.60486457,.00084883,98.4011,110.9439,122.2889,237.9135,0,U,35935,999,89392,.12333947E-3,.55E-5,0
DMSP 5D-3 F18 (USA 210),2009-057A,2026-07-23T06:38:28.461984,14.14915516,.00116728,98.9064,184.9722,143.4041,216.7932,0,U,35951,999,86469,.13657096E-3,.219E-5,0
PROBA-2,2009-059B,2026-07-23T01:44:15.785088,14.54876107,.00135754,98.2464,26.9303,164.5615,195.5999,0,U,36037,999,88674,.48646926E-4,.164E-5,0
YAOGAN-7,2009-069A,2026-07-23T04:07:55.758432,14.78040795,.00231671,98.0022,89.8090,284.2919,75.5719,0,U,36110,999,89494,.57803829E-4,.366E-5,0
XIWANG-1 (HOPE-1),2009-072B,2026-07-23T06:25:08.508576,13.16439359,.0007771,100.4040,157.5263,146.8491,213.3111,0,U,36122,999,79775,-.70884151E-3,-.315E-5,0
RADUGA-1M 2,2010-002A,2026-07-22T23:57:56.043648,0.98969977,.00046137,3.7116,78.4130,264.4067,97.9867,0,U,36358,999,5038,0,-.272E-5,0
COSMOS 2463,2010-017A,2026-07-23T03:40:43.569120,13.71667442,.00368795,82.9578,223.2794,32.3484,35.1667,0,U,36519,999,81286,.25677308E-4,.38E-6,0
CARTOSAT-2B,2010-035A,2026-07-23T06:32:55.040064,14.78656087,.00127236,97.9935,254.5874,77.1664,283.0967,0,U,36795,999,86518,.13770699E-4,.49E-6,0
AISSAT 1,2010-035C,2026-07-22T23:02:15.654624,14.97499734,.00076381,98.0886,104.4613,307.1449,52.9074,0,U,36797,999,86957,.12441152E-3,.1387E-4,0
TISAT 1,2010-035E,2026-07-23T07:02:10.948128,15.32974639,.00048506,98.0704,154.0856,104.9298,255.2479,0,U,36799,999,87323,.68646884E-3,.21823E-3,0
YAOGAN-10,2010-038A,2026-07-23T07:53:04.698240,14.85448967,.00016477,97.8978,227.4453,85.1488,5.2468,0,U,36834,999,86257,.2047956E-3,.1712E-4,0
SHIJIAN-6 04B (SJ-6 04B),2010-051B,2026-07-23T06:15:38.659104,14.99379879,.00087216,97.8727,210.0578,187.5367,172.5726,0,U,37180,999,86108,-.4780314E-5,-.12E-5,0
FENGYUN 3B,2010-059A,2026-07-23T07:19:42.901824,14.14847229,.00232559,98.9604,250.4692,84.8808,6.1858,0,U,37214,999,81253,-.63889538E-4,-.169E-5,0
COSMO-SKYMED 4,2010-060A,2026-07-23T07:00:16.736832,14.82157282,.0001559,97.8907,27.3699,86.1194,274.0197,0,U,37216,999,84991,.67723753E-4,.487E-5,0
O/OREOS (USA 219),2010-062C,2026-07-22T10:05:34.335456,14.93871007,.00144818,71.9704,0.5182,351.1937,8.8977,0,U,37224,999,12190,.15681122E-3,.1606E-4,0
ELEKTRO-L 1 (GOMS 2),2011-001A,2026-07-23T04:35:23.872128,1.00163429,.00044015,9.7653,54.1327,35.9000,153.5975,0,U,37344,999,5684,0,.43E-6,0
RESOURCESAT-2,2011-015A,2026-07-23T06:22:45.928704,14.21600905,.0011996,98.7625,271.4547,148.8871,211.3019,0,U,37387,999,79130,.448999E-4,.54E-6,0
YOUTHSAT,2011-015B,2026-07-22T20:58:04.636128,14.25642919,.00133535,98.3711,176.3238,234.6831,153.2866,0,U,37388,999,79272,.81302387E-4,.151E-5,0
APRIZESAT 6,2011-044F,2026-07-22T07:40:21.097632,14.76964313,.00424939,98.2329,114.5327,335.3434,147.2526,0,U,37793,999,80233,.89357335E-4,.581E-5,0
JUGNU,2011-058B,2026-07-23T00:32:28.762368,14.13785262,.00186531,19.9608,90.7073,112.3991,15.7019,0,U,37839,999,76410,.70105674E-4,.401E-5,0
SRMSAT,2011-058D,2026-07-23T08:04:34.923648,14.11582322,.00115608,19.9701,200.6646,241.2167,146.8753,0,U,37841,999,76293,.53261444E-4,.363E-5,0
