{"epoch":1784817359,"count":18317,"objects":[{"id":"33434","name":"CHUANG XIN 1-02(CX-1-02)","type":"PAYLOAD","l1":"1 33434U 08056B   26204.32811197  .00000044  00000-0  33986-4 0  9993","l2":"2 33434  98.6135 230.2329 0015034  38.4347 321.7903 14.30159711923780"},{"id":"33498","name":"STARS (KUKAI)","type":"PAYLOAD","l1":"1 33498U 09002G   26203.80557380  .00004012  00000-0  36329-3 0  9990","l2":"2 33498  98.1555 152.5755 0009963  59.5951 300.6252 14.95964883943802"},{"id":"33499","name":"KKS-1 (KISEKI)","type":"PAYLOAD","l1":"1 33499U 09002H   26204.21506685  .00001077  00000-0  13865-3 0  9997","l2":"2 33499  98.1169 127.2277 0008073 162.9724 197.1761 14.83203408941538"},{"id":"33591","name":"NOAA 19","type":"PAYLOAD","l1":"1 33591U 09005A   26204.29298328  .00000011  00000-0  29886-4 0  9991","l2":"2 33591  98.9503 275.1908 0012716 289.5371  70.4428 14.13479265899587"},{"id":"35683","name":"DMC 2","type":"PAYLOAD","l1":"1 35683U 09041C   26204.28919332  .00000968  00000-0  14752-3 0  9995","l2":"2 35683  97.8880 338.3828 0001733  99.5330 260.6076 14.76102893911891"},{"id":"35865","name":"METEOR-M","type":"PAYLOAD","l1":"1 35865U 09049A   26203.79081703  .00000045  00000-0  39561-4 0  9994","l2":"2 35865  98.7410 166.0128 0001921 175.4146 184.7050 14.23163647874318"},{"id":"35931","name":"OCEANSAT 2","type":"PAYLOAD","l1":"1 35931U 09051A   26204.22856260  .00000170  00000-0  14195-3 0  9992","l2":"2 35931  98.2329 187.4817 0017799 130.5772 229.6947 13.99657062884377"},{"id":"35932","name":"SWISSCUBE","type":"PAYLOAD","l1":"1 35932U 09051B   26204.15543684  .00000831  00000-0  17352-3 0  9990","l2":"2 35932  98.3998 112.6657 0008109  98.0034 262.2087 14.62541744894411"},{"id":"35933","name":"BEESAT","type":"PAYLOAD","l1":"1 35933U 09051C   26203.84145627  .00000667  00000-0  14346-3 0  9998","l2":"2 35933  98.3927 111.9069 0006451 110.1032 250.0863 14.61770632894398"},{"id":"35935","name":"ITUPSAT 1","type":"PAYLOAD","l1":"1 35935U 09051E   26203.72659903  .00000550  00000-0  12334-3 0  9990","l2":"2 35935  98.4011 110.9439 0008488 122.2889 237.9135 14.60486457893923"},{"id":"35951","name":"DMSP 5D-3 F18 (USA 210)","type":"PAYLOAD","l1":"1 35951U 09057A   26204.27671831  .00000219  00000-0  13657-3 0  9990","l2":"2 35951  98.9064 184.9722 0011673 143.4041 216.7932 14.14915516864699"},{"id":"36037","name":"PROBA 2","type":"PAYLOAD","l1":"1 36037U 09059B   26204.07240492  .00000164  00000-0  48647-4 0  9998","l2":"2 36037  98.2464  26.9303 0013575 164.5615 195.5999 14.54876107886749"},{"id":"36110","name":"YAOGAN 7","type":"PAYLOAD","l1":"1 36110U 09069A   26204.17217313  .00000366  00000-0  57804-4 0  9997","l2":"2 36110  98.0022  89.8090 0023167 284.2919  75.5719 14.78040795894945"},{"id":"36122","name":"XIWANG-1 (HOPE-1)","type":"PAYLOAD","l1":"1 36122U 09072B   26204.26745959 -.00000315  00000-0 -70884-3 0  9994","l2":"2 36122 100.4040 157.5263 0007771 146.8491 213.3111 13.16439359797750"},{"id":"36358","name":"RADUGA 1M-2","type":"PAYLOAD","l1":"1 36358U 10002A   26203.99856532 -.00000272  00000-0  00000-0 0  9990","l2":"2 36358   3.7116  78.4130 0004614 264.4067  97.9867  0.98969977 50388"},{"id":"36519","name":"COSMOS 2463","type":"PAYLOAD","l1":"1 36519U 10017A   26204.15328205  .00000038  00000-0  25677-4 0  9995","l2":"2 36519  82.9578 223.2794 0036880  32.3484  35.1667 13.71667442812867"},{"id":"36795","name":"CARTOSAT 2B","type":"PAYLOAD","l1":"1 36795U 10035A   26204.27285926  .00000049  00000-0  13771-4 0  9990","l2":"2 36795  97.9935 254.5874 0012724  77.1664 283.0967 14.78656087865181"},{"id":"36797","name":"AISSAT 1","type":"PAYLOAD","l1":"1 36797U 10035C   26203.95990341  .00001387  00000-0  12441-3 0  9998","l2":"2 36797  98.0886 104.4613 0007638 307.1449  52.9074 14.97499734869573"},{"id":"36799","name":"TISAT 1","type":"PAYLOAD","l1":"1 36799U 10035E   26204.29318227  .00021823  00000-0  68647-3 0  9991","l2":"2 36799  98.0704 154.0856 0004851 104.9298 255.2479 15.32974639873230"},{"id":"36834","name":"YAOGAN 10","type":"PAYLOAD","l1":"1 36834U 10038A   26204.32852660  .00001712  00000-0  20480-3 0  9990","l2":"2 36834  97.8978 227.4453 0001648  85.1488   5.2468 14.85448967862573"},{"id":"37180","name":"SHIJIAN 6 04B (SJ-6 04B)","type":"PAYLOAD","l1":"1 37180U 10051B   26204.26086411 -.00000120  00000-0 -47803-5 0  9990","l2":"2 37180  97.8727 210.0578 0008722 187.5367 172.5726 14.99379879861089"},{"id":"37214","name":"FENGYUN 3B","type":"PAYLOAD","l1":"1 37214U 10059A   26204.30535766 -.00000169  00000-0 -63890-4 0  9999","l2":"2 37214  98.9604 250.4692 0023256  84.8808   6.1858 14.14847229812536"},{"id":"37216","name":"SKYMED 4","type":"PAYLOAD","l1":"1 37216U 10060A   26204.29186038  .00000487  00000-0  67724-4 0  9996","l2":"2 37216  97.8907  27.3699 0001559  86.1194 274.0197 14.82157282849917"},{"id":"37224","name":"O/OREOS (USA 219)","type":"PAYLOAD","l1":"1 37224U 10062C   26203.42053629  .00001606  00000-0  15681-3 0  9998","l2":"2 37224  71.9704   0.5182 0014482 351.1937   8.8977 14.93871007121904"},{"id":"37344","name":"ELEKTRO-L","type":"PAYLOAD","l1":"1 37344U 11001A   26204.19124852  .00000043  00000-0  00000-0 0  9997","l2":"2 37344   9.7653  54.1327 0004401  35.9000 153.5975  1.00163429 56845"},{"id":"37387","name":"RESOURCESAT 2","type":"PAYLOAD","l1":"1 37387U 11015A   26204.26580936  .00000054  00000-0  44900-4 0  9999","l2":"2 37387  98.7625 271.4547 0011996 148.8871 211.3019 14.21600905791305"},{"id":"37388","name":"YOUTHSAT","type":"PAYLOAD","l1":"1 37388U 11015B   26203.87366477  .00000151  00000-0  81302-4 0  9993","l2":"2 37388  98.3711 176.3238 0013354 234.6831 153.2866 14.25642919792724"},{"id":"37793","name":"APRIZESAT 6","type":"PAYLOAD","l1":"1 37793U 11044F   26203.31968863  .00000581  00000-0  89357-4 0  9996","l2":"2 37793  98.2329 114.5327 0042494 335.3434 147.2526 14.76964313802332"},{"id":"37839","name":"JUGNU","type":"PAYLOAD","l1":"1 37839U 11058B   26204.02255512  .00000401  00000-0  70106-4 0  9994","l2":"2 37839  19.9608  90.7073 0018653 112.3991  15.7019 14.13785262764100"},{"id":"37841","name":"SRMSAT","type":"PAYLOAD","l1":"1 37841U 11058D   26204.33651532  .00000363  00000-0  53261-4 0  9993","l2":"2 37841  19.9701 200.6646 0011561 241.2167 146.8753 14.11582322762933"}]}